ONEWEB-0267             
1 48985U 21060U   24325.51571093  .00000075  00000+0  16370-3 0  9991
2 48985  87.9090 343.0645 0001931  83.4460 276.6891 13.16592116164109
ONEWEB-0268             
1 48986U 21060V   24325.48404233 -.00000024  00000+0 -95579-4 0  9994
2 48986  87.9088 343.0773 0001997  92.5181 267.6179 13.16598759165651
ONEWEB-0269             
1 48987U 21060W   24325.00906093 -.00000022  00000+0 -91295-4 0  9993
2 48987  87.9093 343.2021 0001866  95.6218 264.5125 13.16596636164070
ONEWEB-0270             
1 48988U 21060X   24325.48245612  .00000024  00000+0  29784-4 0  9993
2 48988  87.9089 343.0838 0001769  76.6344 283.4984 13.16596379165484
ONEWEB-0271             
1 48989U 21060Y   24325.46978848 -.00000211  00000+0 -58571-3 0  9991
2 48989  87.9090 343.0648 0001886  80.7608 279.3737 13.16594517164172
ONEWEB-0272             
1 48990U 21060Z   24326.02393329 -.00000049  00000+0 -16291-3 0  9993
2 48990  87.9089 342.9852 0001924  85.3956 274.7395 13.16596841165494
ONEWEB-0273             
1 48991U 21060AA  24325.51412328  .00000086  00000+0  19132-3 0  9994
2 48991  87.9090 343.0725 0001673  86.1847 273.9475 13.16596663164106
ONEWEB-0274             
1 48992U 21060AB  24325.46346172 -.00000277  00000+0 -75919-3 0  9991
2 48992  87.9098 343.1067 0002368  90.4922 269.6480 13.16594566164130
